STARLINK-30790          
1 58127U 23162K   26068.22212918  .00039164  00000+0  21713-2 0  9994
2 58127  42.9975 130.2155 0010343  31.6175 328.5291 15.13105037132295
LEMUR-2-ESPERANZA       
1 63352U 25061B   26068.87489603  .00006090  00000+0  34973-3 0  9993
2 63352  97.5568  45.1407 0016949 244.8770 115.0702 15.12770807 52576
